NORAD_CAT_ID,OBJECT_NAME,OBJECT_TYPE,EPOCH,MEAN_MOTION,ECCENTRICITY,INCLINATION,RA_OF_ASC_NODE,ARG_OF_PERICENTER,MEAN_ANOMALY,BSTAR,MEAN_MOTION_DOT,MEAN_MOTION_DDOT,TLE_LINE0,TLE_LINE1,TLE_LINE2,SEMIMAJOR_AXIS,PERIOD,APOGEE,PERIGEE,DECAYED
53144.0,STARLINK-4100,PAYLOAD,2023-03-02 18:07:47,15.08858163,0.0001504,53.2153,85.3826,78.7641,281.352,0.0008186,0.0001277,0.0,0 STARLINK-4100,1 53144U 22083N   23061.75540834  .00012770  00000-0  81860-3 0  9993,2 53144  53.2153  85.3826 0001504  78.7641 281.3520 15.08858163 35344,6917.825,95.436,540.73,538.649,0.0
53144.0,STARLINK-4100,PAYLOAD,2023-03-03 06:50:51,15.08883078,0.0001512,53.215,83.0049,75.3276,284.7884,0.0013229,0.00020854,0.0,0 STARLINK-4100,1 53144U 22083N   23062.28531770  .00020854  00000-0  13229-2 0  9996,2 53144  53.2150  83.0049 0001512  75.3276 284.7884 15.08883078 35421,6917.749,95.435,540.66,538.568,0.0
53144.0,STARLINK-4100,PAYLOAD,2023-03-03 17:58:33,15.0884873,0.0001828,53.2142,80.924,82.1637,277.9563,-0.00044215,-7.32e-05,0.0,0 STARLINK-4100,1 53144U 22083N   23062.74899443 -.00007320  00000-0 -44215-3 0  9996,2 53144  53.2142  80.9240 0001828  82.1637 277.9563 15.08848730 35499,6917.854,95.437,540.983,538.454,0.0
53144.0,STARLINK-4100,PAYLOAD,2023-03-04 11:27:47,15.08861822,0.0001199,53.2148,77.6536,96.4102,263.7026,0.0020364,0.00032289,0.0,0 STARLINK-4100,1 53144U 22083N   23063.47762939  .00032289  00000-0  20364-2 0  9994,2 53144  53.2148  77.6536 0001199  96.4102 263.7026 15.08861822 35609,6917.814,95.436,540.508,538.849,0.0
53144.0,STARLINK-4100,PAYLOAD,2023-03-04 13:03:10,15.08866711,0.0001196,53.2146,77.3565,95.9376,264.1753,0.0019923,0.00031585,0.0,0 STARLINK-4100,1 53144U 22083N   23063.54386796  .00031585  00000-0  19923-2 0  9992,2 53144  53.2146  77.3565 0001196  95.9376 264.1753 15.08866711 34984,6917.799,95.436,540.491,538.836,0.0
53144.0,STARLINK-4100,PAYLOAD,2023-03-04 17:49:20,15.0883679,0.0002514,53.2157,76.4613,80.5228,279.6048,0.00072887,0.0001133,0.0,0 STARLINK-4100,1 53144U 22083N   23063.74259903  .00011330  00000-0  72887-3 0  9998,2 53144  53.2157  76.4613 0002514  80.5228 279.6048 15.08836790 35647,6917.89,95.438,541.494,538.016,0.0
53144.0,STARLINK-4100,PAYLOAD,2023-03-05 09:43:12,15.08834557,0.0001654,53.2141,73.4893,76.0202,284.0974,0.0011945,0.00018771,0.0,0 STARLINK-4100,1 53144U 22083N   23064.40500074  .00018771  00000-0  11945-2 0  9993,2 53144  53.2141  73.4893 0001654  76.0202 284.0974 15.08834557 35741,6917.897,95.438,540.906,538.618,0.0
53144.0,STARLINK-4100,PAYLOAD,2023-03-05 17:40:07,15.08843316,0.000129,53.2138,72.0048,83.5474,276.5665,0.0012778,0.00020109,0.0,0 STARLINK-4100,1 53144U 22083N   23064.73620065  .00020109  00000-0  12778-2 0  9995,2 53144  53.2138  72.0048 0001290  83.5474 276.5665 15.08843316 35166,6917.87,95.437,540.628,538.843,0.0
53144.0,STARLINK-4100,PAYLOAD,2023-03-06 17:30:54,15.08832886,8.05e-05,53.2143,67.5426,76.46,283.6482,-0.00042741,-7.082e-05,0.0,0 STARLINK-4100,1 53144U 22083N   23065.72979492 -.00007082  00000-0 -42741-3 0  9997,2 53144  53.2143  67.5426 0000805  76.4600 283.6482 15.08832886 35946,6917.902,95.438,540.324,539.21,0.0
53144.0,STARLINK-4100,PAYLOAD,2023-03-07 06:13:59,15.08837876,8.31e-05,53.214,65.165,53.9056,306.2013,0.0014667,0.0002313,0.0,0 STARLINK-4100,1 53144U 22083N   23066.25971783  .00023130  00000-0  14667-2 0  9996,2 53144  53.2140  65.1650 0000831  53.9056 306.2013 15.08837876 36026,6917.887,95.438,540.327,539.177,0.0
53144.0,STARLINK-4100,PAYLOAD,2023-03-07 17:21:41,15.08840477,0.0001083,53.2145,63.0799,94.8698,265.2418,0.00079406,0.00012372,0.0,0 STARLINK-4100,1 53144U 22083N   23066.72339905  .00012372  00000-0  79406-3 0  9991,2 53144  53.2145  63.0799 0001083  94.8698 265.2418 15.08840477 36099,6917.879,95.438,540.493,538.995,0.0
53144.0,STARLINK-4100,PAYLOAD,2023-03-08 10:50:56,15.08864687,0.0001223,53.2155,59.8089,102.8459,257.267,0.0021002,0.00033318,0.0,0 STARLINK-4100,1 53144U 22083N   23067.45203750  .00033318  00000-0  21002-2 0  9991,2 53144  53.2155  59.8089 0001223 102.8459 257.2670 15.08864687 36209,6917.805,95.436,540.516,538.824,0.0
53144.0,STARLINK-4100,PAYLOAD,2023-03-09 02:44:47,15.08864954,0.0001156,53.2157,56.8348,123.9218,236.1884,0.0025423,0.00040433,0.0,0 STARLINK-4100,1 53144U 22083N   23068.11443951  .00040433  00000-0  25423-2 0  9991,2 53144  53.2157  56.8348 0001156 123.9218 236.1884 15.08864954 36309,6917.804,95.436,540.469,538.869,0.0
53144.0,STARLINK-4100,PAYLOAD,2023-03-09 05:55:33,15.08859711,0.0001165,53.2156,56.2398,116.1283,243.9829,0.0019809,0.00031396,0.0,0 STARLINK-4100,1 53144U 22083N   23068.24691878  .00031396  00000-0  19809-2 0  9997,2 53144  53.2156  56.2398 0001165 116.1283 243.9829 15.08859711 36325,6917.82,95.436,540.491,538.879,0.0
53144.0,STARLINK-4100,PAYLOAD,2023-03-10 02:35:34,15.08855536,0.0001384,53.2173,52.3734,119.5171,240.5959,0.0011815,0.00018574,0.0,0 STARLINK-4100,1 53144U 22083N   23069.10803817  .00018574  00000-0  11815-2 0  9993,2 53144  53.2173  52.3734 0001384 119.5171 240.5959 15.08855536 36453,6917.833,95.437,540.655,538.74,0.0
53144.0,STARLINK-4100,PAYLOAD,2023-03-10 15:18:39,15.08857975,7.06e-05,53.2161,49.9975,90.4475,269.6598,0.00080778,0.00012598,0.0,0 STARLINK-4100,1 53144U 22083N   23069.63795519  .00012598  00000-0  80778-3 0  9995,2 53144  53.2161  49.9975 0000706  90.4475 269.6598 15.08857975 36539,6917.825,95.436,540.179,539.202,0.0
53144.0,STARLINK-4100,PAYLOAD,2023-03-11 08:47:54,15.08838238,0.0001228,53.2164,46.7246,76.9031,283.2098,0.0017818,0.00028182,0.0,0 STARLINK-4100,1 53144U 22083N   23070.36660607  .00028182  00000-0  17818-2 0  9996,2 53144  53.2164  46.7246 0001228  76.9031 283.2098 15.08838238 36645,6917.886,95.438,540.6,538.901,0.0
53144.0,STARLINK-4100,PAYLOAD,2023-03-12 10:14:04,15.08894939,7.96e-05,53.2155,41.9681,119.0392,241.068,0.0030643,0.00048892,0.0,0 STARLINK-4100,1 53144U 22083N   23071.42643791  .00048892  00000-0  30643-2 0  9990,2 53144  53.2155  41.9681 0000796 119.0392 241.0680 15.08894939 36800,6917.712,95.434,540.128,539.027,0.0
53144.0,STARLINK-4100,PAYLOAD,2023-03-13 11:40:12,15.08771322,0.0001375,53.2158,37.211,128.3858,231.7257,0.0011604,0.00018193,0.0,0 STARLINK-4100,1 53144U 22083N   23072.48625808  .00018193  00000-0  11604-2 0  9993,2 53144  53.2158  37.2110 0001375 128.3858 231.7257 15.08771322 36965,6918.09,95.442,540.907,539.004,0.0
53144.0,STARLINK-4100,PAYLOAD,2023-03-13 21:12:33,15.08789917,0.0001462,53.2159,35.4271,116.0296,244.0846,0.0017175,0.00027114,0.0,0 STARLINK-4100,1 53144U 22083N   23072.88371598  .00027114  00000-0  17175-2 0  9993,2 53144  53.2159  35.4271 0001462 116.0296 244.0846 15.08789917 36398,6918.033,95.441,540.91,538.887,0.0
53144.0,STARLINK-4100,PAYLOAD,2023-03-14 06:44:52,15.08815483,0.0001544,53.2157,33.6415,117.1272,242.9877,0.0020522,0.00032502,0.0,0 STARLINK-4100,1 53144U 22083N   23073.28116568  .00032502  00000-0  20522-2 0  9999,2 53144  53.2157  33.6415 0001544 117.1272 242.9877 15.08815483 37089,6917.955,95.439,540.888,538.752,0.0
53144.0,STARLINK-4100,PAYLOAD,2023-03-14 21:03:20,15.08875826,0.000145,53.2163,30.966,117.5256,242.5884,0.0027634,0.0004401,0.0,0 STARLINK-4100,1 53144U 22083N   23073.87732113  .00044010  00000-0  27634-2 0  9992,2 53144  53.2163  30.9660 0001450 117.5256 242.5884 15.08875826 37171,6917.771,95.435,540.639,538.633,0.0
53144.0,STARLINK-4100,PAYLOAD,2023-03-15 06:35:37,15.08922316,0.000152,53.2162,29.1817,116.6382,243.4766,0.0032291,0.00051596,0.0,0 STARLINK-4100,1 53144U 22083N   23074.27474426  .00051596  00000-0  32291-2 0  9999,2 53144  53.2162  29.1817 0001520 116.6382 243.4766 15.08922316 37235,6917.629,95.432,540.545,538.442,0.0
53144.0,STARLINK-4100,PAYLOAD,2023-03-15 20:54:06,15.08868541,0.000188,53.2166,26.5055,105.9161,254.2038,0.0012724,0.00020036,0.0,0 STARLINK-4100,1 53144U 22083N   23074.87090606  .00020036  00000-0  12724-2 0  9993,2 53144  53.2166  26.5055 0001880 105.9161 254.2038 15.08868541 37320,6917.793,95.436,540.959,538.358,0.0
53144.0,STARLINK-4100,PAYLOAD,2023-03-16 03:15:38,15.08854243,9.91e-05,53.2163,25.3169,95.8116,264.2989,0.0021588,0.0003425,0.0,0 STARLINK-4100,1 53144U 22083N   23075.13586744  .00034250  00000-0  21588-2 0  9997,2 53144  53.2163  25.3169 0000991  95.8116 264.2989 15.08854243 37363,6917.837,95.437,540.387,539.016,0.0
53144.0,STARLINK-4100,PAYLOAD,2023-03-16 20:44:54,15.08834798,0.0001382,53.2164,22.0443,88.3063,271.8087,0.0016965,0.00026811,0.0,0 STARLINK-4100,1 53144U 22083N   23075.86452269  .00026811  00000-0  16965-2 0  9998,2 53144  53.2164  22.0443 0001382  88.3063 271.8087 15.08834798 37474,6917.896,95.438,540.717,538.805,0.0
53144.0,STARLINK-4100,PAYLOAD,2023-03-17 03:06:27,15.08814377,9.8e-05,53.2165,20.8547,55.3506,304.7578,0.0016527,0.00026094,0.0,0 STARLINK-4100,1 53144U 22083N   23076.12948879  .00026094  00000-0  16527-2 0  9992,2 53144  53.2165  20.8547 0000980  55.3506 304.7578 15.08814377 37512,6917.959,95.439,540.502,539.146,0.0
53144.0,STARLINK-4100,PAYLOAD,2023-03-17 12:38:47,15.08829938,0.0001109,53.2163,19.0708,60.3176,299.7926,0.0014563,0.00022959,0.0,0 STARLINK-4100,1 53144U 22083N   23076.52693380  .00022959  00000-0  14563-2 0  9994,2 53144  53.2163  19.0708 0001109  60.3176 299.7926 15.08829938 36947,6917.911,95.438,540.543,539.009,0.0
53144.0,STARLINK-4100,PAYLOAD,2023-03-17 19:00:19,15.08834404,0.0001163,53.2177,17.8813,63.8023,296.3088,0.00099482,0.00015578,0.0,0 STARLINK-4100,1 53144U 22083N   23076.79189549  .00015578  00000-0  99482-3 0  9993,2 53144  53.2177  17.8813 0001163  63.8023 296.3088 15.08834404 37615,6917.897,95.438,540.567,538.958,0.0
53144.0,STARLINK-4100,PAYLOAD,2023-03-18 12:29:33,15.08862359,0.0001341,53.2165,14.611,51.9813,308.13,0.0010384,0.00016287,0.0,0 STARLINK-4100,1 53144U 22083N   23077.52052915  .00016287  00000-0  10384-2 0  9992,2 53144  53.2165  14.6110 0001341  51.9813 308.1300 15.08862359 37091,6917.812,95.436,540.605,538.749,0.0
